{"type": "FeatureCollection", "features": [ {"type": "Feature", "properties": {"norad_id": 66635, "name": "STARLINK-35955", "group": "last-30-days", "lat": 47.84920915096416, "lon": -179.4354313678164, "alt_km": 439.99752024347254, "timestamp": "2025-12-25T22:42:15.707366+00:00", "meta": {"OBJECT_NAME": "STARLINK-35955", "OBJECT_ID": "2025-271U", "EPOCH": "2025-12-25T17:44:13.259040", "MEAN_MOTION": 15.39629085, "ECCENTRICITY": 0.0001123, "INCLINATION": 53.1599, "RA_OF_ASC_NODE": 125.6204, "ARG_OF_PERICENTER": 84.6976, "MEAN_ANOMALY": 275.4157, "EPHEMERIS_TYPE": 0, "CLASSIFICATION_TYPE": "U", "NORAD_CAT_ID": 66635, "ELEMENT_SET_NO": 999, "REV_AT_EPOCH": 621, "BSTAR": 0.0013904, "MEAN_MOTION_DOT": 0.00055637, "MEAN_MOTION_DDOT": 0}, "tle": {"line1": "1 66635U 25271U   25359.73904235  .00055637  00000+0  13904-2 0  9994", "line2": "2 66635  53.1599 125.6204 0001123  84.6976 275.4157 15.39629085  6215"}}, "geometry": {"type": "Point", "coordinates": [-179.4354313678164, 47.84920915096416]}}, {"type": "Feature", "properties": {"norad_id": 66636, "name": "STARLINK-35968", "group": "last-30-days", "lat": 32.46151964283339, "lon": 153.17772936937902, "alt_km": 441.9978347536535, "timestamp": "2025-12-25T22:42:15.707378+00:00", "meta": {"OBJECT_NAME": "STARLINK-35968", "OBJECT_ID": "2025-271V", "EPOCH": "2025-12-25T17:50:54.548160", "MEAN_MOTION": 15.39645114, "ECCENTRICITY": 0.0001585, "INCLINATION": 53.1624, "RA_OF_ASC_NODE": 125.65, "ARG_OF_PERICENTER": 46.0423, "MEAN_ANOMALY": 314.0712, "EPHEMERIS_TYPE": 0, "CLASSIFICATION_TYPE": "U", "NORAD_CAT_ID": 66636, "ELEMENT_SET_NO": 999, "REV_AT_EPOCH": 621, "BSTAR": 0.0009443, "MEAN_MOTION_DOT": 0.00037589, "MEAN_MOTION_DDOT": 0}, "tle": {"line1": "1 66636U 25271V   25359.74368690  .00037589  00000+0  94430-3 0  9995", "line2": "2 66636  53.1624 125.6500 0001585  46.0423 314.0712 15.39645114  6213"}}, "geometry": {"type": "Point", "coordinates": [153.17772936937902, 32.46151964283339]}}, {"type": "Feature", "properties": {"norad_id": 66637, "name": "STARLINK-35953", "group": "last-30-days", "lat": 52.98048880263749, "lon": -139.23476656051082, "alt_km": 439.13579887085325, "timestamp": "2025-12-25T22:42:15.707388+00:00", "meta": {"OBJECT_NAME": "STARLINK-35953", "OBJECT_ID": "2025-271W", "EPOCH": "2025-12-25T17:37:32.185056", "MEAN_MOTION": 15.39634333, "ECCENTRICITY": 0.0001402, "INCLINATION": 53.16, "RA_OF_ASC_NODE": 125.5901, "ARG_OF_PERICENTER": 68.9063, "MEAN_ANOMALY": 291.2092, "EPHEMERIS_TYPE": 0, "CLASSIFICATION_TYPE": "U", "NORAD_CAT_ID": 66637, "ELEMENT_SET_NO": 999, "REV_AT_EPOCH": 621, "BSTAR": 0.0012604, "MEAN_MOTION_DOT": 0.00050371, "MEAN_MOTION_DDOT": 0}, "tle": {"line1": "1 66637U 25271W   25359.73440029  .00050371  00000+0  12604-2 0  9998", "line2": "2 66637  53.1600 125.5901 0001402  68.9063 291.2092 15.39634333  6211"}}, "geometry": {"type": "Point", "coordinates": [-139.23476656051082, 52.98048880263749]}}, {"type": "Feature", "properties": {"norad_id": 66638, "name": "STARLINK-35972", "group": "last-30-days", "lat": 27.09611398454393, "lon": -78.06696883053978, "alt_km": 443.65373375843046, "timestamp": "2025-12-25T22:42:15.707398+00:00", "meta": {"OBJECT_NAME": "STARLINK-35972", "OBJECT_ID": "2025-271X", "EPOCH": "2025-12-25T17:24:09.592128", "MEAN_MOTION": 15.39630209, "ECCENTRICITY": 0.0001072, "INCLINATION": 53.1593, "RA_OF_ASC_NODE": 125.5308, "ARG_OF_PERICENTER": 80.0592, "MEAN_ANOMALY": 280.0534, "EPHEMERIS_TYPE": 0, "CLASSIFICATION_TYPE": "U", "NORAD_CAT_ID": 66638, "ELEMENT_SET_NO": 999, "REV_AT_EPOCH": 621, "BSTAR": 0.0012209, "MEAN_MOTION_DOT": 0.00048763, "MEAN_MOTION_DDOT": 0}, "tle": {"line1": "1 66638U 25271X   25359.72511102  .00048763  00000+0  12209-2 0  9992", "line2": "2 66638  53.1593 125.5308 0001072  80.0592 280.0534 15.39630209  6214"}}, "geometry": {"type": "Point", "coordinates": [-78.06696883053978, 27.09611398454393]}}, {"type": "Feature", "properties": {"norad_id": 66639, "name": "STARLINK-35908", "group": "last-30-days", "lat": 7.136914310169129, "lon": -60.94869005899902, "alt_km": 447.1106982837764, "timestamp": "2025-12-25T22:42:15.707408+00:00", "meta": {"OBJECT_NAME": "STARLINK-35908", "OBJECT_ID": "2025-271Y", "EPOCH": "2025-12-25T17:17:28.282272", "MEAN_MOTION": 15.396157, "ECCENTRICITY": 0.0001113, "INCLINATION": 53.1597, "RA_OF_ASC_NODE": 125.5009, "ARG_OF_PERICENTER": 80.8294, "MEAN_ANOMALY": 279.2836, "EPHEMERIS_TYPE": 0, "CLASSIFICATION_TYPE": "U", "NORAD_CAT_ID": 66639, "ELEMENT_SET_NO": 999, "REV_AT_EPOCH": 621, "BSTAR": 0.0009671, "MEAN_MOTION_DOT": 0.00038474, "MEAN_MOTION_DDOT": 0}, "tle": {"line1": "1 66639U 25271Y   25359.72046623  .00038474  00000+0  96710-3 0  9992", "line2": "2 66639  53.1597 125.5009 0001113  80.8294 279.2836 15.39615700  6214"}}, "geometry": {"type": "Point", "coordinates": [-60.94869005899902, 7.136914310169129]}}, {"type": "Feature", "properties": {"norad_id": 66640, "name": "STARLINK-35921", "group": "last-30-days", "lat": 44.130304518661895, "lon": -102.11699615926061, "alt_km": 441.31688895519164, "timestamp": "2025-12-25T22:42:15.707418+00:00", "meta": {"OBJECT_NAME": "STARLINK-35921", "OBJECT_ID": "2025-271Z", "EPOCH": "2025-12-25T17:30:50.449248", "MEAN_MOTION": 15.39636254, "ECCENTRICITY": 1.21e-05, "INCLINATION": 53.1611, "RA_OF_ASC_NODE": 125.56, "ARG_OF_PERICENTER": 242.9433, "MEAN_ANOMALY": 117.156, "EPHEMERIS_TYPE": 0, "CLASSIFICATION_TYPE": "U", "NORAD_CAT_ID": 66640, "ELEMENT_SET_NO": 999, "REV_AT_EPOCH": 621, "BSTAR": 0.00098064, "MEAN_MOTION_DOT": 0.00039047, "MEAN_MOTION_DDOT": 0}, "tle": {"line1": "1 66640U 25271Z   25359.72975057  .00039047  00000+0  98064-3 0  9997", "line2": "2 66640  53.1611 125.5600 0000121 242.9433 117.1560 15.39636254  6215"}}, "geometry": {"type": "Point", "coordinates": [-102.11699615926061, 44.130304518661895]}}, {"type": "Feature", "properties": {"norad_id": 66641, "name": "STARLINK-35923", "group": "last-30-days", "lat": -45.048806829712554, "lon": 75.51192748695043, "alt_km": 452.34974969925224, "timestamp": "2025-12-25T22:42:15.707428+00:00", "meta": {"OBJECT_NAME": "STARLINK-35923", "OBJECT_ID": "2025-271AA", "EPOCH": "2025-12-25T18:00:02.000160", "MEAN_MOTION": 15.39552809, "ECCENTRICITY": 0.0001279, "INCLINATION": 53.1611, "RA_OF_ASC_NODE": 125.1096, "ARG_OF_PERICENTER": 56.6702, "MEAN_ANOMALY": 234.3149, "EPHEMERIS_TYPE": 0, "CLASSIFICATION_TYPE": "U", "NORAD_CAT_ID": 66641, "ELEMENT_SET_NO": 999, "REV_AT_EPOCH": 609, "BSTAR": 0.0020083, "MEAN_MOTION_DOT": 0.00080607, "MEAN_MOTION_DDOT": 0}, "tle": {"line1": "1 66641U 25271AA  25359.75002315  .00080607  00000+0  20083-2 0  9992", "line2": "2 66641  53.1611 125.1096 0001279  56.6702 234.3149 15.39552809  6099"}}, "geometry": {"type": "Point", "coordinates": [75.51192748695043, -45.048806829712554]}}, {"type": "Feature", "properties": {"norad_id": 66642, "name": "STARLINK-35926", "group": "last-30-days", "lat": -52.96202834474164, "lon": 40.76534720340658, "alt_km": 452.80361577514395, "timestamp": "2025-12-25T22:42:15.707444+00:00", "meta": {"OBJECT_NAME": "STARLINK-35926", "OBJECT_ID": "2025-271AB", "EPOCH": "2025-12-25T18:00:02.000160", "MEAN_MOTION": 15.39570984, "ECCENTRICITY": 0.000116, "INCLINATION": 53.1607, "RA_OF_ASC_NODE": 125.1584, "ARG_OF_PERICENTER": 63.1294, "MEAN_ANOMALY": 203.914, "EPHEMERIS_TYPE": 0, "CLASSIFICATION_TYPE": "U", "NORAD_CAT_ID": 66642, "ELEMENT_SET_NO": 999, "REV_AT_EPOCH": 609, "BSTAR": 0.001722, "MEAN_MOTION_DOT": 0.00068991, "MEAN_MOTION_DDOT": 0}, "tle": {"line1": "1 66642U 25271AB  25359.75002315  .00068991  00000+0  17220-2 0  9994", "line2": "2 66642  53.1607 125.1584 0001160  63.1294 203.9140 15.39570984  6092"}}, "geometry": {"type": "Point", "coordinates": [40.76534720340658, -52.96202834474164]}}, {"type": "Feature", "properties": {"norad_id": 66643, "name": "STARLINK-35918", "group": "last-30-days", "lat": -13.429614945174729, "lon": -45.303444103071506, "alt_km": 449.8758827896381, "timestamp": "2025-12-25T22:42:15.707454+00:00", "meta": {"OBJECT_NAME": "STARLINK-35918", "OBJECT_ID": "2025-271AC", "EPOCH": "2025-12-25T15:37:18.413184", "MEAN_MOTION": 15.39654781, "ECCENTRICITY": 0.0001349, "INCLINATION": 53.1627, "RA_OF_ASC_NODE": 125.776, "ARG_OF_PERICENTER": 83.2816, "MEAN_ANOMALY": 276.8342, "EPHEMERIS_TYPE": 0, "CLASSIFICATION_TYPE": "U", "NORAD_CAT_ID": 66643, "ELEMENT_SET_NO": 999, "REV_AT_EPOCH": 620, "BSTAR": 0.0010433, "MEAN_MOTION_DOT": 0.00041607, "MEAN_MOTION_DDOT": 0}, "tle": {"line1": "1 66643U 25271AC  25359.65090756  .00041607  00000+0  10433-2 0  9994", "line2": "2 66643  53.1627 125.7760 0001349  83.2816 276.8342 15.39654781  6203"}}, "geometry": {"type": "Point", "coordinates": [-45.303444103071506, -13.429614945174729]}}, {"type": "Feature", "properties": {"norad_id": 66644, "name": "STARLINK-35938", "group": "last-30-days", "lat": -53.08973184062284, "lon": 37.736189706526666, "alt_km": 452.813991471412, "timestamp": "2025-12-25T22:42:15.707466+00:00", "meta": {"OBJECT_NAME": "STARLINK-35938", "OBJECT_ID": "2025-271AD", "EPOCH": "2025-12-25T18:00:02.000160", "MEAN_MOTION": 15.39572421, "ECCENTRICITY": 0.000109, "INCLINATION": 53.1605, "RA_OF_ASC_NODE": 125.1625, "ARG_OF_PERICENTER": 71.0433, "MEAN_ANOMALY": 194.1644, "EPHEMERIS_TYPE": 0, "CLASSIFICATION_TYPE": "U", "NORAD_CAT_ID": 66644, "ELEMENT_SET_NO": 999, "REV_AT_EPOCH": 606, "BSTAR": 0.0017543, "MEAN_MOTION_DOT": 0.00070311, "MEAN_MOTION_DDOT": 0}, "tle": {"line1": "1 66644U 25271AD  25359.75002315  .00070311  00000+0  17543-2 0  9993", "line2": "2 66644  53.1605 125.1625 0001090  71.0433 194.1644 15.39572421  6068"}}, "geometry": {"type": "Point", "coordinates": [37.736189706526666, -53.08973184062284]}}]}